HORYU-4                 
1 41340U 16012D   20033.54770941  .00000478  00000-0  29444-4 0  9993
2 41340  31.0051 117.2229 0013922 240.5042 119.4205 15.01407525217431
E-ST@R-II               
1 41459U 16025D   20033.80790910  .00001316  00000-0  71059-4 0  9996
2 41459  98.0981 136.8634 0164623 308.3854  50.2677 15.06013514207028
AAUSAT 4                
1 41460U 16025E   20033.87951170  .00001927  00000-0  99121-4 0  9990
2 41460  98.0951 138.8139 0154410 298.4643  60.1103 15.08133671207200
DIWATA-1                
1 41463U 98067HT  20034.43836756  .00082339  14129-4  17361-3 0  9996
2 41463  51.6232 122.1450 0002327 345.5569 112.2399 15.98871880216286
BEESAT-4                
1 41619U 16040W   20033.62814202  .00001238  00000-0  54517-4 0  9995
2 41619  97.3393  96.2673 0009700 302.6655  57.3646 15.23651950188716
CANX-7                  
1 41788U 16059F   20034.46386920  .00007668  00000-0  11014-2 0  9992
2 41788  98.2531 119.1205 0022404  11.7801 348.3911 14.76573258179887
RAVAN                   
1 41849U 16067B   20033.78969466  .00000555  00000-0  51663-4 0  9999
2 41849  97.9267 141.4452 0007864 350.6063   9.5011 14.98446663176301
CELTEE 1                
1 41850U 16067C   20033.79624668 -.00000383  00000-0 -27870-4 0  9998
2 41850  97.9208 139.5663 0008568 349.6768  10.4276 14.97117306176203
OPTICUBE 04             
1 41851U 16067D   20033.83788656  .00000670  00000-0  63711-4 0  9993
2 41851  97.9196 139.2970 0008352 353.0607   7.0497 14.96879434176191
AEROCUBE 8D             
1 41852U 16067E   20033.85131677  .00000211  00000-0  23714-4 0  9991
2 41852  97.9208 139.1399 0009279 352.2918   7.8159 14.96837485176176
AEROCUBE 8C             
1 41853U 16067F   20033.81283155  .00000076  00000-0  11992-4 0  9991
2 41853  97.9195 139.0181 0009598 350.3841   9.7194 14.96794839176162
PROMETHEUS 2-1          
1 41854U 16067G   20033.80954741  .00000098  00000-0  13770-4 0  9997
2 41854  97.9204 139.2625 0009895 348.9017  11.1985 14.97073626176178
PROMETHEUS 2-3          
1 41855U 16067H   20033.87771340  .00000157  00000-0  18899-4 0  9990
2 41855  97.9206 139.3572 0010042 348.9107  11.1891 14.97082539176189
INS-1B                  
1 41954U 17008G   20034.40638770  .00001172  00000-0  50588-4 0  9994
2 41954  97.3727 101.1286 0010507  62.8658 297.3650 15.24445743164795
BGUSAT                  
1 41999U 17008BD  20033.71454198  .00001952  00000-0  76508-4 0  9992
2 41999  97.3823 103.8715 0009559  75.0595 285.1702 15.26938659164235
DIDO-2                  
1 42000U 17008BE  20034.21597400  .00000813  00000-0  36181-4 0  9994
2 42000  97.3736 101.4833 0010137  79.3920 280.8459 15.24253077164165
PEASSS                  
1 42015U 17008BV  20034.22514358  .00001066  00000-0  45129-4 0  9995
2 42015  97.3754 102.8328 0007993  83.5726 276.6422 15.25313080164730
AL-FARABI 1             
1 42016U 17008BW  20033.46467209  .00001407  00000-0  57402-4 0  9999
2 42016  97.3778 102.9162 0007867  85.1109 275.1027 15.26067080164784
NAYIF-1 (EO-88)         
1 42017U 17008BX  20034.43040737  .00001414  00000-0  57578-4 0  9993
2 42017  97.3775 103.8814 0007862  82.2306 277.9825 15.26107560164951
NSIGHT                  
1 42726U 98067MF  20034.45791243  .00079220  00000-0  30231-3 0  9997
2 42726  51.6287 203.1364 0002825 319.8604  40.2191 15.86804654154081
UCLSAT                  
1 42765U 17036A   20033.71266463  .00001134  00000-0  50793-4 0  9991
2 42765  97.3215  91.4762 0012517 138.3148 221.9045 15.23209897145320
LITUANICASAT-2          
1 42768U 17036D   20033.72908922  .00001935  00000-0  83618-4 0  9999
2 42768  97.3263  91.2809 0016235 130.7993 229.4655 15.23549950145171
AALTO-1                 
1 42775U 17036L   20033.86312754  .00000680  00000-0  33028-4 0  9990
2 42775  97.3193  89.8091 0015186 131.7211 228.5327 15.21639547145058
URSA MAIOR              
1 42776U 17036M   20034.39379895  .00000781  00000-0  37307-4 0  9995
2 42776  97.3204  90.5544 0015046 129.8462 230.4101 15.21801843145147
COMPASS 2               
1 42777U 17036N   20033.67708227  .00001445  00000-0  63328-4 0  9991
2 42777  97.3255  91.6860 0013696 131.2578 228.9842 15.23503603145128
DIAMOND RED             
1 42783U 17036U   20034.43673731  .00000918  00000-0  42425-4 0  9993
2 42783  97.3214  91.5834 0013247 137.9249 222.3008 15.22579375145209
PEGASUS                 
1 42784U 17036V   20033.71110506  .00001016  00000-0  46154-4 0  9993
2 42784  97.3219  91.2165 0013049 139.3737 220.8476 15.22922108145115
DIAMOND GREEN           
1 42785U 17036W   20033.58118575  .00000904  00000-0  41810-4 0  9992
2 42785  97.3217  90.7808 0013065 141.1936 219.0241 15.22579035145063
DIAMOND BLUE            
1 42786U 17036X   20033.58038175  .00000887  00000-0  41104-4 0  9996
2 42786  97.3217  90.7766 0012894 141.3243 218.8920 15.22577496145069
NUDTSAT                 
1 42787U 17036Y   20033.94403799  .00001222  00000-0  53114-4 0  9993
2 42787  97.3263  92.5458 0011409 131.5330 228.6889 15.24090244145053
SUCHAI                  
1 42788U 17036Z   20033.71617559  .00001221  00000-0  54108-4 0  9993
2 42788  97.3226  91.6908 0012661 137.9694 222.2517 15.23415725145217
SKCUBE                  
1 42789U 17036AA  20033.68355641  .00001127  00000-0  50352-4 0  9993
2 42789  97.3221  91.5503 0012521 138.2820 221.9374 15.23282235145128
VZLUSAT-1               
1 42790U 17036AB  20033.80075020  .00001466  00000-0  63152-4 0  9997
2 42790  97.3242  92.4010 0012087 136.2291 223.9907 15.24080341145188
ROBUSTA-1B              
1 42792U 17036AD  20033.71954883  .00001179  00000-0  52312-4 0  9999
2 42792  97.3223  91.7956 0012094 138.3695 221.8465 15.23463716145152
CICERO 6                
1 42793U 17036AE  20033.78417666  .00000766  00000-0  35548-4 0  9993
2 42793  97.3202  91.4282 0011337 139.7866 220.4212 15.22912145145219
D-SAT                   
1 42794U 17036AF  20033.56561679  .00000152  00000-0  18339-4 0  9992
2 42794  97.5117  72.8205 0127908  98.4419 263.1322 14.91211348142442
CORVUS BC2              
1 42846U 17042X   20033.63999443  .00000285  00000-0  33318-4 0  9990
2 42846  97.5417 283.1597 0010086  20.0780 340.0834 14.92055072139152
CORVUS BC1              
1 42847U 17042Y   20033.64487804  .00000232  00000-0  28021-4 0  9992
2 42847  97.5419 283.3096 0009722  19.6967 340.4626 14.92156095139157
MIRATA                  
1 43015U 17073C   20033.80542195  .00000630  00000-0  53733-4 0  9997
2 43015  97.7229 311.1699 0255115 130.7680 231.5981 14.79381759119166
MAKERSAT 0              
1 43016U 17073D   20033.73014206  .00000426  00000-0  38053-4 0  9998
2 43016  97.7263 311.2961 0257683 131.7628 230.5925 14.79024470119131
ASTERIA                 
1 43020U 98067NH  20034.52016088  .00048419  00000-0  19408-3 0  9999
2 43020  51.6391 215.2271 0001811 285.1018  74.9786 15.85994140126110
DELLINGR (RBLE)         
1 43021U 98067NJ  20034.46922645  .00011486  00000-0  10982-3 0  9990
2 43021  51.6357 247.8893 0001409 236.8762 123.2099 15.67237562125679
AEROCUBE 7B (OCSD B)    
1 43042U 17071F   20033.82171154  .00003926  00000-0  98141-4 0  9993
2 43042  51.6387  11.6150 0003828 271.7112  88.3435 15.42602588121434
AEROCUBE 7C (OCSD C)    
1 43043U 17071G   20033.82295961  .00003877  00000-0  97092-4 0  9996
2 43043  51.6387  11.6381 0004062 276.8775  83.1748 15.42580582121409
CHEFSAT                 
1 43044U 17071H   20033.80170947  .00006923  00000-0  14610-3 0  9990
2 43044  51.6394   1.2070 0003679 280.2103  79.8469 15.46396657121544
ASGARDIA 1              
1 43049U 17071N   20034.21107216  .00003627  00000-0  91145-4 0  9997
2 43049  51.6398   9.0360 0001790 303.3784  56.7031 15.42677980121462
ISARA                   
1 43050U 17071P   20033.77250727  .00006783  00000-0  14696-3 0  9996
2 43050  51.6378   3.1759 0001579 303.3011  56.7825 15.45652289121512
PROPCUBE 2 (FAUNA)      
1 43052U 17071R   20033.78037573  .00003686  00000-0  91364-4 0  9998
2 43052  51.6393   9.9292 0001711 297.2438  62.8374 15.43051107121415
CORVUS BC3              
1 43118U 18004H   20033.71017001  .00000711  00000-0  33078-4 0  9999
2 43118  97.4607 104.9980 0010885 160.7642 199.4008 15.23155694114335
MICROMAS-2A             
1 43131U 18004W   20034.41854620  .00001808  00000-0  75723-4 0  9999
2 43131  97.4644 106.9890 0009865 157.6992 202.4676 15.24808601114512
SPACEBEE-4              
1 43139U 18004AE  20033.63971186  .00002534  00000-0  10163-3 0  9990
2 43139  97.4669 107.0914 0009229 161.0954 199.0629 15.25902589114438
SPACEBEE-3              
1 43140U 18004AF  20033.65670187  .00002967  00000-0  11596-3 0  9992
2 43140  97.4681 107.5996 0009062 160.1771 199.9821 15.26638015114479
SPACEBEE-2              
1 43141U 18004AG  20033.72658679  .00003182  00000-0  12320-3 0  9999
2 43141  97.4693 107.8481 0009053 159.4600 200.7004 15.26889377114492
SPACEBEE-1              
1 43142U 18004AH  20033.85390083  .00003196  00000-0  12267-3 0  9991
2 43142  97.4696 108.1637 0009061 159.1160 201.0451 15.27177378114515
CICERO 7                
1 43143U 18004AJ  20033.63784255  .00001630  00000-0  68451-4 0  9994
2 43143  97.4627 106.4152 0007765 166.8774 193.2667 15.24890897114413
GOMX-4B                 
1 43196U 18015E   20033.91445571  .00000684  00000-0  30990-4 0  9995
2 43196  97.4176 163.6829 0017659 218.3997 141.5985 15.24130198111258
GOMX-4A                 
1 43197U 18015F   20034.10707618  .00000849  00000-0  37581-4 0  9997
2 43197  97.4176 163.9262 0018066 216.7707 316.9448 15.24301812111296
1KUNS-PF                
1 43466U 98067NP  20033.95092405  .00045586  00000-0  25774-3 0  9991
2 43466  51.6314 242.0066 0001204 205.5054 154.5888 15.78635802 98969
UBAKUSAT                
1 43467U 98067NQ  20033.64226189  .00017535  00000-0  15333-3 0  9999
2 43467  51.6337 257.2995 0001838 194.6274 165.4670 15.69020437 98747
